CCSDS_OMM_VERS = 2.0
CREATION_DATE  = 
ORIGINATOR     = 

OBJECT_NAME    = H-2A R/B
OBJECT_ID      = 2006-002B
CENTER_NAME    = EARTH
REF_FRAME      = TEME
TIME_SYSTEM    = UTC
MEAN_ELEMENT_THEORY = SGP/SGP4

EPOCH          = 2026-04-04T00:13:14.596608
MEAN_MOTION    = 15.17034066
ECCENTRICITY   = .00524658
INCLINATION    = 98.2464
RA_OF_ASC_NODE = 243.2285
ARG_OF_PERICENTER = 154.6510
MEAN_ANOMALY   = 205.7312

EPHEMERIS_TYPE = 0
CLASSIFICATION_TYPE = U
NORAD_CAT_ID   = 28932
ELEMENT_SET_NO = 999
REV_AT_EPOCH   = 9827
BSTAR          = .90235935E-3
MEAN_MOTION_DOT = .18444E-3
MEAN_MOTION_DDOT = 0

CCSDS_OMM_VERS = 2.0
CREATION_DATE  = 
ORIGINATOR     = 

OBJECT_NAME    = RESURS-DK 1
OBJECT_ID      = 2006-021A
CENTER_NAME    = EARTH
REF_FRAME      = TEME
TIME_SYSTEM    = UTC
MEAN_ELEMENT_THEORY = SGP/SGP4

EPOCH          = 2026-04-04T06:09:01.288224
MEAN_MOTION    = 15.12909449
ECCENTRICITY   = .00019497
INCLINATION    = 69.9333
RA_OF_ASC_NODE = 170.8865
ARG_OF_PERICENTER = 35.2722
MEAN_ANOMALY   = 324.8572

EPHEMERIS_TYPE = 0
CLASSIFICATION_TYPE = U
NORAD_CAT_ID   = 29228
ELEMENT_SET_NO = 999
REV_AT_EPOCH   = 9139
BSTAR          = .25534883E-3
MEAN_MOTION_DOT = .4401E-4
MEAN_MOTION_DDOT = 0

CCSDS_OMM_VERS = 2.0
CREATION_DATE  = 
ORIGINATOR     = 

OBJECT_NAME    = CZ-4B R/B
OBJECT_ID      = 2006-046C
CENTER_NAME    = EARTH
REF_FRAME      = TEME
TIME_SYSTEM    = UTC
MEAN_ELEMENT_THEORY = SGP/SGP4

EPOCH          = 2026-04-04T03:15:34.249248
MEAN_MOTION    = 15.17184348
ECCENTRICITY   = .00332909
INCLINATION    = 97.5536
RA_OF_ASC_NODE = 138.9735
ARG_OF_PERICENTER = 176.7207
MEAN_ANOMALY   = 183.4251

EPHEMERIS_TYPE = 0
CLASSIFICATION_TYPE = U
NORAD_CAT_ID   = 29507
ELEMENT_SET_NO = 999
REV_AT_EPOCH   = 6390
BSTAR          = .48931241E-3
MEAN_MOTION_DOT = .9794E-4
MEAN_MOTION_DDOT = 0

CCSDS_OMM_VERS = 2.0
CREATION_DATE  = 
ORIGINATOR     = 

OBJECT_NAME    = CZ-2C R/B
OBJECT_ID      = 2007-010B
CENTER_NAME    = EARTH
REF_FRAME      = TEME
TIME_SYSTEM    = UTC
MEAN_ELEMENT_THEORY = SGP/SGP4

EPOCH          = 2026-04-04T07:11:02.548320
MEAN_MOTION    = 14.20256381
ECCENTRICITY   = .00583461
INCLINATION    = 98.4006
RA_OF_ASC_NODE = 206.2979
ARG_OF_PERICENTER = 218.8344
MEAN_ANOMALY   = 140.8634

EPHEMERIS_TYPE = 0
CLASSIFICATION_TYPE = U
NORAD_CAT_ID   = 31114
ELEMENT_SET_NO = 999
REV_AT_EPOCH   = 98335
BSTAR          = .12362246E-3
MEAN_MOTION_DOT = .227E-5
MEAN_MOTION_DDOT = 0

CCSDS_OMM_VERS = 2.0
CREATION_DATE  = 
ORIGINATOR     = 

OBJECT_NAME    = COSMO-SKYMED 1
OBJECT_ID      = 2007-023A
CENTER_NAME    = EARTH
REF_FRAME      = TEME
TIME_SYSTEM    = UTC
MEAN_ELEMENT_THEORY = SGP/SGP4

EPOCH          = 2026-04-04T06:30:23.796864
MEAN_MOTION    = 14.96737166
ECCENTRICITY   = .00015764
INCLINATION    = 97.8869
RA_OF_ASC_NODE = 285.5122
ARG_OF_PERICENTER = 99.6691
MEAN_ANOMALY   = 260.4708

EPHEMERIS_TYPE = 0
CLASSIFICATION_TYPE = U
NORAD_CAT_ID   = 31598
ELEMENT_SET_NO = 999
REV_AT_EPOCH   = 1873
BSTAR          = .60265283E-3
MEAN_MOTION_DOT = .6832E-4
MEAN_MOTION_DDOT = 0

CCSDS_OMM_VERS = 2.0
CREATION_DATE  = 
ORIGINATOR     = 

OBJECT_NAME    = COSMOS 2428
OBJECT_ID      = 2007-029A
CENTER_NAME    = EARTH
REF_FRAME      = TEME
TIME_SYSTEM    = UTC
MEAN_ELEMENT_THEORY = SGP/SGP4

EPOCH          = 2026-04-04T05:35:56.622336
MEAN_MOTION    = 14.12949003
ECCENTRICITY   = .00096986
INCLINATION    = 70.9423
RA_OF_ASC_NODE = 149.7324
ARG_OF_PERICENTER = 250.5460
MEAN_ANOMALY   = 109.4613

EPHEMERIS_TYPE = 0
CLASSIFICATION_TYPE = U
NORAD_CAT_ID   = 31792
ELEMENT_SET_NO = 999
REV_AT_EPOCH   = 96770
BSTAR          = .23011063E-4
MEAN_MOTION_DOT = -.5E-7
MEAN_MOTION_DDOT = 0

CCSDS_OMM_VERS = 2.0
CREATION_DATE  = 
ORIGINATOR     = 

OBJECT_NAME    = SL-16 R/B
OBJECT_ID      = 2007-029B
CENTER_NAME    = EARTH
REF_FRAME      = TEME
TIME_SYSTEM    = UTC
MEAN_ELEMENT_THEORY = SGP/SGP4

EPOCH          = 2026-04-04T07:14:55.901760
MEAN_MOTION    = 14.14843963
ECCENTRICITY   = .00029017
INCLINATION    = 70.9739
RA_OF_ASC_NODE = 118.5468
ARG_OF_PERICENTER = 276.7049
MEAN_ANOMALY   = 161.7644

EPHEMERIS_TYPE = 0
CLASSIFICATION_TYPE = U
NORAD_CAT_ID   = 31793
ELEMENT_SET_NO = 999
REV_AT_EPOCH   = 96899
BSTAR          = -.25566218E-4
MEAN_MOTION_DOT = -.97E-6
MEAN_MOTION_DDOT = 0

CCSDS_OMM_VERS = 2.0
CREATION_DATE  = 
ORIGINATOR     = 

OBJECT_NAME    = KORONAS-FOTON
OBJECT_ID      = 2009-003A
CENTER_NAME    = EARTH
REF_FRAME      = TEME
TIME_SYSTEM    = UTC
MEAN_ELEMENT_THEORY = SGP/SGP4

EPOCH          = 2026-04-04T04:12:05.819904
MEAN_MOTION    = 15.44071314
ECCENTRICITY   = .00114464
INCLINATION    = 82.4286
RA_OF_ASC_NODE = 249.3643
ARG_OF_PERICENTER = 66.8292
MEAN_ANOMALY   = 293.4160

EPHEMERIS_TYPE = 0
CLASSIFICATION_TYPE = U
NORAD_CAT_ID   = 33504
ELEMENT_SET_NO = 999
REV_AT_EPOCH   = 94967
BSTAR          = .49806943E-3
MEAN_MOTION_DOT = .22871E-3
MEAN_MOTION_DDOT = 0

CCSDS_OMM_VERS = 2.0
CREATION_DATE  = 
ORIGINATOR     = 

OBJECT_NAME    = CZ-2C R/B
OBJECT_ID      = 2011-030B
CENTER_NAME    = EARTH
REF_FRAME      = TEME
TIME_SYSTEM    = UTC
MEAN_ELEMENT_THEORY = SGP/SGP4

EPOCH          = 2026-04-03T21:00:21.301056
MEAN_MOTION    = 14.81315501
ECCENTRICITY   = .00509251
INCLINATION    = 97.8589
RA_OF_ASC_NODE = 50.6430
ARG_OF_PERICENTER = 268.4412
MEAN_ANOMALY   = 148.7353

EPHEMERIS_TYPE = 0
CLASSIFICATION_TYPE = U
NORAD_CAT_ID   = 37731
ELEMENT_SET_NO = 999
REV_AT_EPOCH   = 79382
BSTAR          = .32106651E-3
MEAN_MOTION_DOT = .2507E-4
MEAN_MOTION_DDOT = 0

CCSDS_OMM_VERS = 2.0
CREATION_DATE  = 
ORIGINATOR     = 

OBJECT_NAME    = H-2A R/B
OBJECT_ID      = 2012-025E
CENTER_NAME    = EARTH
REF_FRAME      = TEME
TIME_SYSTEM    = UTC
MEAN_ELEMENT_THEORY = SGP/SGP4

EPOCH          = 2026-04-03T21:21:40.447008
MEAN_MOTION    = 14.95351172
ECCENTRICITY   = .00432261
INCLINATION    = 98.4773
RA_OF_ASC_NODE = 62.9643
ARG_OF_PERICENTER = 229.4419
MEAN_ANOMALY   = 130.3033

EPHEMERIS_TYPE = 0
CLASSIFICATION_TYPE = U
NORAD_CAT_ID   = 38341
ELEMENT_SET_NO = 999
REV_AT_EPOCH   = 75198
BSTAR          = .43150824E-3
MEAN_MOTION_DOT = .4781E-4
MEAN_MOTION_DDOT = 0

CCSDS_OMM_VERS = 2.0
CREATION_DATE  = 
ORIGINATOR     = 

OBJECT_NAME    = SHIJIAN-16 (SJ-16)
OBJECT_ID      = 2013-057A
CENTER_NAME    = EARTH
REF_FRAME      = TEME
TIME_SYSTEM    = UTC
MEAN_ELEMENT_THEORY = SGP/SGP4

EPOCH          = 2026-04-04T07:17:49.013664
MEAN_MOTION    = 14.92440255
ECCENTRICITY   = .00153518
INCLINATION    = 74.9712
RA_OF_ASC_NODE = 136.5979
ARG_OF_PERICENTER = 46.0808
MEAN_ANOMALY   = 314.1645

EPHEMERIS_TYPE = 0
CLASSIFICATION_TYPE = U
NORAD_CAT_ID   = 39358
ELEMENT_SET_NO = 999
REV_AT_EPOCH   = 67532
BSTAR          = .13057768E-3
MEAN_MOTION_DOT = .1312E-4
MEAN_MOTION_DDOT = 0

CCSDS_OMM_VERS = 2.0
CREATION_DATE  = 
ORIGINATOR     = 

OBJECT_NAME    = SL-4 R/B
OBJECT_ID      = 2014-021B
CENTER_NAME    = EARTH
REF_FRAME      = TEME
TIME_SYSTEM    = UTC
MEAN_ELEMENT_THEORY = SGP/SGP4

EPOCH          = 2026-04-03T17:57:42.956640
MEAN_MOTION    = 15.40122549
ECCENTRICITY   = .00945201
INCLINATION    = 51.6063
RA_OF_ASC_NODE = 214.9494
ARG_OF_PERICENTER = 194.4221
MEAN_ANOMALY   = 165.4063

EPHEMERIS_TYPE = 0
CLASSIFICATION_TYPE = U
NORAD_CAT_ID   = 39679
ELEMENT_SET_NO = 999
REV_AT_EPOCH   = 66013
BSTAR          = .54336188E-3
MEAN_MOTION_DOT = .2556E-3
MEAN_MOTION_DDOT = 0

